ASTERIA                 
1 43020U 98067NH  18290.96451352  .00010129  00000-0  11887-3 0  9995
2 43020  51.6409 116.3719 0002006 266.4616  93.6149 15.62155568 51667
DELLINGR (RBLE)         
1 43021U 98067NJ  18291.06759008  .00007571  00000-0  10105-3 0  9996
2 43021  51.6386 119.2611 0001870 252.3642 107.7146 15.59182271 51634
OSIRIS-3U               
1 43027U 98067NL  18291.47770069  .00046735  00000-0  33851-3 0  9995
2 43027  51.6347 103.1682 0003738 253.8296 106.2291 15.72948668 51767
AEROCUBE 7B             
1 43042U 17071F   18291.21967863  .00002562  00000-0  74002-4 0  9994
2 43042  51.6381 161.8203 0004748   0.7204 359.3786 15.39617511 48558
AEROCUBE 7C             
1 43043U 17071G   18291.08978723  .00002673  00000-0  76776-4 0  9990
2 43043  51.6384 162.4605 0004880   1.7483 358.3517 15.39621105 48502
CHEFSAT                 
1 43044U 17071H   18290.94422831  .00004562  00000-0  11841-3 0  9999
2 43044  51.6387 161.5340 0004688   1.3339 358.7658 15.41021955 48504
ASGARDIA 1              
1 43049U 17071N   18291.06068483  .00003302  00000-0  92113-4 0  9990
2 43049  51.6384 162.2772 0002679  29.0312 331.0821 15.39735050 48498
ISARA                   
1 43050U 17071P   18291.22168720  .00003544  00000-0  94958-4 0  9992
2 43050  51.6380 160.3722 0002479  29.1810 330.9313 15.40761511 48534
FAUNA                   
1 43052U 17071R   18290.90721664  .00003085  00000-0  86227-4 0  9990
2 43052  51.6384 162.7647 0002534  25.8015 334.3096 15.39911895 48473
CORVUS BC3              
1 43118U 18004H   18290.86013151  .00000881  00000-0  41122-4 0  9996
2 43118  97.5200 353.6139 0011384  33.8006 326.3953 15.22448340 42379
MICROMAS-2A             
1 43131U 18004W   18291.42401372  .00001972  00000-0  86249-4 0  9991
2 43131  97.5214 354.4248 0010465  35.5422 324.6510 15.23234755 42474
GOMX4-B                 
1 43196U 18015E   18290.81870132  .00002344  00000-0  10000-3 0  9995
2 43196  97.3622  57.3603 0020034  86.9025 274.2570 15.23729608 39201
GOMX4-A                 
1 43197U 18015F   18291.48290020  .00000603  00000-0  27865-4 0  9996
2 43197  97.3627  58.0134 0020962  84.4086 341.1485 15.23797764 39313
1KUNS-PF                
1 43466U 98067NP  18291.47860548  .00012386  00000-0  16590-3 0  9990
2 43466  51.6387 121.2459 0000826 179.5617 180.5376 15.58404797 24906
UBAKUSAT                
1 43467U 98067NQ  18291.38128437  .00007805  00000-0  11022-3 0  9990
2 43467  51.6385 122.0994 0002572 217.5294 142.5518 15.57604639 24892
BATSU-CS1 (IRAZU)       
1 43468U 98067NR  18290.80698649  .00015570  00000-0  20207-3 0  9997
2 43468  51.6386 124.2612 0000983 169.1567 190.9447 15.59023290124792
CUBERRT                 
1 43546U 98067NU  18291.00706839  .00010544  00000-0  15263-3 0  9990
2 43546  51.6387 125.5894 0005278 292.4094  67.6338 15.56487250 14944
TEMPEST-D               
1 43547U 98067NV  18290.89979864  .00006490  00000-0  10009-3 0  9995
2 43547  51.6384 126.3714 0005346 295.8455  64.1985 15.55512749 14600
RAINCUBE                
1 43548U 98067NW  18290.82585672  .00008415  00000-0  12504-3 0  9990
2 43548  51.6385 126.6280 0005225 301.7715  58.2767 15.56086110 15045
HALOSAT                 
1 43549U 98067NX  18290.76204350  .00008862  00000-0  13133-3 0  9990
2 43549  51.6385 126.9521 0005245 303.8157  56.2335 15.56081036 14592
ENDUROSAT ONE           
1 43551U 98067NZ  18290.80399877  .00010088  00000-0  14582-3 0  9999
2 43551  51.6381 126.4820 0005674 310.5968  49.4529 15.56581994 15014
EQUISAT                 
1 43552U 98067PA  18291.00186601  .00008591  00000-0  12622-3 0  9991
2 43552  51.6383 125.5549 0005945 312.3207  47.7280 15.56363858 15003
AEROCUBE 12A            
1 43556U 18046C   18290.81556306  .00001990  00000-0  84764-4 0  9998
2 43556  51.6415 145.7854 0007907 278.4322  81.5762 15.27917660 14268
AEROCUBE 12B            
1 43557U 18046D   18290.81625675  .00001772  00000-0  76978-4 0  9991
2 43557  51.6414 145.7896 0007919 278.4778  81.5304 15.27883406 14219
UITMSAT-1               
1 43589U 98067PD  18291.48933160  .00009748  00000-0  14439-3 0  9996
2 43589  51.6380 123.5569 0005303 324.1517  35.9118 15.55960409 10810
MAYA-1                  
1 43590U 98067PE  18290.84583041  .00009305  00000-0  13807-3 0  9993
2 43590  51.6381 126.7598 0005363 322.6414  37.4204 15.55974486 10649
BHUTAN-1                
1 43591U 98067PF  18291.55061655  .00009911  00000-0  14631-3 0  9994
2 43591  51.6380 123.2168 0005469 326.6723  33.3924 15.56029588 10759
SIRIUSSAT-1             
1 43595U 98067PG  18290.79984906  .00009088  00000-0  13709-3 0  9996
2 43595  51.6382 127.1981 0003179 264.6224  95.4404 15.55558800  9814
SIRIUSSAT-2             
1 43596U 98067PH  18290.80549071  .00009029  00000-0  13698-3 0  9991
2 43596  51.6391 127.2422 0003794 269.9169  90.1387 15.55410360  9815
TANUSHA-3               
1 43597U 98067PJ  18290.80143789  .00011000  00000-0  16396-3 0  9998
2 43597  51.6371 127.2035 0003149 282.3421  77.7217 15.55636691  9818
SURFSAT                 
1 43614U 18070B   18290.95865856  .00003445  00000-0  97076-4 0  9995
2 43614  93.0265 262.9191 0016883 154.8474 205.3604 15.36349472  4978
CP-7 (DAVE)             
1 43615U 18070C   18290.89332380  .00003293  00000-0  92793-4 0  9992
2 43615  93.0261 262.8923 0016743 154.8593 205.3479 15.36355145  4967
ELFIN-B                 
1 43616U 18070D   18290.63146795 -.00000006  00000-0  00000-0 0  9994
2 43616  93.0267 262.7663 0019619 162.4369 197.7622 15.36417681  4929
ELFIN-A                 
1 43617U 18070E   18291.21712445 -.00000006  00000-0  00000+0 0  9990
2 43617  93.0319 263.0417 0018360 154.3328 205.9069 15.36459279  5013
